{
  "type": "FeatureCollection",
  "features": [
    {
      "type": "Feature",
      "properties": {
        "norad_id": 40894,
        "name": "GAOFEN-9 01",
        "group": "resource",
        "lat": -5.644708746511267,
        "lon": 18.95627598861227,
        "alt_km": 616.8011202315747,
        "timestamp": "2025-12-04T21:36:15.531595+00:00",
        "meta_object_name": "GAOFEN-9 01",
        "meta_object_id": "2015-047A",
        "meta_epoch": "2025-12-04T15:08:59.576640",
        "meta_mean_motion": 14.82390774,
        "meta_eccentricity": 0.0028891,
        "meta_inclination": 97.6554,
        "meta_ra_of_asc_node": 17.9372,
        "meta_arg_of_pericenter": 59.921,
        "meta_mean_anomaly": 300.4864,
        "meta_ephemeris_type": 0,
        "meta_classification_type": "U",
        "meta_norad_cat_id": 40894,
        "meta_element_set_no": 999,
        "meta_rev_at_epoch": 55136,
        "meta_bstar": 0.00033307648,
        "meta_mean_motion_dot": 2.636e-05,
        "meta_mean_motion_ddot": 0,
        "tle_line1": "1 40894U 15047A   25338.63124510  .00002636  00000+0  33308-3 0  9991",
        "tle_line2": "2 40894  97.6554  17.9372 0028891  59.9210 300.4864 14.82390774551366"
      },
      "geometry": {
        "type": "Point",
        "coordinates": [
          18.95627598861227,
          -5.644708746511267
        ]
      }
    },
    {
      "type": "Feature",
      "properties": {
        "norad_id": 41026,
        "name": "YAOGAN-28",
        "group": "resource",
        "lat": 46.429090780753484,
        "lon": 109.19241626676886,
        "alt_km": 491.47387736284054,
        "timestamp": "2025-12-04T21:36:15.531606+00:00",
        "meta_object_name": "YAOGAN-28",
        "meta_object_id": "2015-064A",
        "meta_epoch": "2025-12-04T15:05:46.198752",
        "meta_mean_motion": 15.24138463,
        "meta_eccentricity": 0.00120187,
        "meta_inclination": 97.2801,
        "meta_ra_of_asc_node": 116.6519,
        "meta_arg_of_pericenter": 152.9619,
        "meta_mean_anomaly": 207.2247,
        "meta_ephemeris_type": 0,
        "meta_classification_type": "U",
        "meta_norad_cat_id": 41026,
        "meta_element_set_no": 999,
        "meta_rev_at_epoch": 56101,
        "meta_bstar": 0.00077554345,
        "meta_mean_motion_dot": 0.0001886,
        "meta_mean_motion_ddot": 0,
        "tle_line1": "1 41026U 15064A   25338.62900693  .00018860  00000+0  77554-3 0  9998",
        "tle_line2": "2 41026  97.2801 116.6519 0012018 152.9619 207.2247 15.24138463561010"
      },
      "geometry": {
        "type": "Point",
        "coordinates": [
          109.19241626676886,
          46.429090780753484
        ]
      }
    },
    {
      "type": "Feature",
      "properties": {
        "norad_id": 41038,
        "name": "YAOGAN-29",
        "group": "resource",
        "lat": -48.535316871881115,
        "lon": 172.8619234396469,
        "alt_km": 627.4654802117248,
        "timestamp": "2025-12-04T21:36:15.531616+00:00",
        "meta_object_name": "YAOGAN-29",
        "meta_object_id": "2015-069A",
        "meta_epoch": "2025-12-04T15:42:57.007872",
        "meta_mean_motion": 14.82868961,
        "meta_eccentricity": 6.687e-05,
        "meta_inclination": 98.0227,
        "meta_ra_of_asc_node": 1.8003,
        "meta_arg_of_pericenter": 2.7599,
        "meta_mean_anomaly": 357.3618,
        "meta_ephemeris_type": 0,
        "meta_classification_type": "U",
        "meta_norad_cat_id": 41038,
        "meta_element_set_no": 999,
        "meta_rev_at_epoch": 54179,
        "meta_bstar": 0.00012654367,
        "meta_mean_motion_dot": 9.71e-06,
        "meta_mean_motion_ddot": 0,
        "tle_line1": "1 41038U 15069A   25338.65482648  .00000971  00000+0  12654-3 0  9998",
        "tle_line2": "2 41038  98.0227   1.8003 0000668   2.7599 357.3618 14.82868961541792"
      },
      "geometry": {
        "type": "Point",
        "coordinates": [
          172.8619234396469,
          -48.535316871881115
        ]
      }
    },
    {
      "type": "Feature",
      "properties": {
        "norad_id": 41167,
        "name": "KENT RIDGE 1",
        "group": "resource",
        "lat": -8.888131966316559,
        "lon": -126.47975847931983,
        "alt_km": 496.21893147924493,
        "timestamp": "2025-12-04T21:36:15.531626+00:00",
        "meta_object_name": "KENT RIDGE 1",
        "meta_object_id": "2015-077B",
        "meta_epoch": "2025-12-04T13:53:53.103840",
        "meta_mean_motion": 15.21536825,
        "meta_eccentricity": 0.00086273,
        "meta_inclination": 14.9803,
        "meta_ra_of_asc_node": 271.6913,
        "meta_arg_of_pericenter": 15.1583,
        "meta_mean_anomaly": 344.8997,
        "meta_ephemeris_type": 0,
        "meta_classification_type": "U",
        "meta_norad_cat_id": 41167,
        "meta_element_set_no": 999,
        "meta_rev_at_epoch": 55139,
        "meta_bstar": 0.00034598476,
        "meta_mean_motion_dot": 8.804e-05,
        "meta_mean_motion_ddot": 0,
        "tle_line1": "1 41167U 15077B   25338.57908685  .00008804  00000+0  34598-3 0  9999",
        "tle_line2": "2 41167  14.9803 271.6913 0008627  15.1583 344.8997 15.21536825551396"
      },
      "geometry": {
        "type": "Point",
        "coordinates": [
          -126.47975847931983,
          -8.888131966316559
        ]
      }
    },
    {
      "type": "Feature",
      "properties": {
        "norad_id": 41194,
        "name": "GAOFEN-4",
        "group": "resource",
        "lat": 0.13206744499572765,
        "lon": 143.6768859598538,
        "alt_km": 35774.236397070505,
        "timestamp": "2025-12-04T21:36:15.531639+00:00",
        "meta_object_name": "GAOFEN-4",
        "meta_object_id": "2015-083A",
        "meta_epoch": "2025-12-04T14:13:46.718112",
        "meta_mean_motion": 1.00273013,
        "meta_eccentricity": 0.00037232,
        "meta_inclination": 0.1483,
        "meta_ra_of_asc_node": 80.8016,
        "meta_arg_of_pericenter": 105.1492,
        "meta_mean_anomaly": 206.8499,
        "meta_ephemeris_type": 0,
        "meta_classification_type": "U",
        "meta_norad_cat_id": 41194,
        "meta_element_set_no": 999,
        "meta_rev_at_epoch": 3657,
        "meta_bstar": 0,
        "meta_mean_motion_dot": -3.2e-06,
        "meta_mean_motion_ddot": 0,
        "tle_line1": "1 41194U 15083A   25338.59290183 -.00000320  00000+0  00000+0 0  9998",
        "tle_line2": "2 41194   0.1483  80.8016 0003723 105.1492 206.8499  1.00273013 36573"
      },
      "geometry": {
        "type": "Point",
        "coordinates": [
          143.6768859598538,
          0.13206744499572765
        ]
      }
    },
    {
      "type": "Feature",
      "properties": {
        "norad_id": 41240,
        "name": "JASON-3",
        "group": "resource",
        "lat": -22.615804468255767,
        "lon": 163.63155504721834,
        "alt_km": 1313.0073786316934,
        "timestamp": "2025-12-04T21:36:15.531650+00:00",
        "meta_object_name": "JASON-3",
        "meta_object_id": "2016-002A",
        "meta_epoch": "2025-12-04T16:08:27.386880",
        "meta_mean_motion": 12.87626112,
        "meta_eccentricity": 0.00071362,
        "meta_inclination": 66.0392,
        "meta_ra_of_asc_node": 174.785,
        "meta_arg_of_pericenter": 270.3157,
        "meta_mean_anomaly": 89.7044,
        "meta_ephemeris_type": 0,
        "meta_classification_type": "U",
        "meta_norad_cat_id": 41240,
        "meta_element_set_no": 999,
        "meta_rev_at_epoch": 46220,
        "meta_bstar": 0.00016945599,
        "meta_mean_motion_dot": -1.9e-07,
        "meta_mean_motion_ddot": 0,
        "tle_line1": "1 41240U 16002A   25338.67253920 -.00000019  00000+0  16946-3 0  9994",
        "tle_line2": "2 41240  66.0392 174.7850 0007136 270.3157  89.7044 12.87626112462205"
      },
      "geometry": {
        "type": "Point",
        "coordinates": [
          163.63155504721834,
          -22.615804468255767
        ]
      }
    },
    {
      "type": "Feature",
      "properties": {
        "norad_id": 41335,
        "name": "SENTINEL-3A",
        "group": "resource",
        "lat": 68.2340020269034,
        "lon": 21.691973023653283,
        "alt_km": 795.3217392643992,
        "timestamp": "2025-12-04T21:36:15.531661+00:00",
        "meta_object_name": "SENTINEL-3A",
        "meta_object_id": "2016-011A",
        "meta_epoch": "2025-12-04T14:32:43.056960",
        "meta_mean_motion": 14.26741862,
        "meta_eccentricity": 9.782e-05,
        "meta_inclination": 98.6218,
        "meta_ra_of_asc_node": 43.7351,
        "meta_arg_of_pericenter": 91.4369,
        "meta_mean_anomaly": 268.6924,
        "meta_ephemeris_type": 0,
        "meta_classification_type": "U",
        "meta_norad_cat_id": 41335,
        "meta_element_set_no": 999,
        "meta_rev_at_epoch": 51031,
        "meta_bstar": 0.00014879543,
        "meta_mean_motion_dot": 3.17e-06,
        "meta_mean_motion_ddot": 0,
        "tle_line1": "1 41335U 16011A   25338.60605390  .00000317  00000+0  14880-3 0  9999",
        "tle_line2": "2 41335  98.6218  43.7351 0000978  91.4369 268.6924 14.26741862510319"
      },
      "geometry": {
        "type": "Point",
        "coordinates": [
          21.691973023653283,
          68.2340020269034
        ]
      }
    }
  ]
}